STARLINK-31585          
1 59608U 24080H   24297.65753701 -.00000310  00000+0 -16919-6 0  9997
2 59608  43.0012  15.6030 0000734 260.0094 100.0680 15.40712020 28715
STARLINK-31667          
1 59609U 24080J   24297.70670204 -.00004773  00000+0 -10715-3 0  9992
2 59609  42.9987  15.1055 0001082 163.5009 196.5882 15.40677828 28728
STARLINK-31729          
1 59610U 24080K   24298.19409931 -.00000785  00000+0 -11544-4 0  9996
2 59610  43.0017  12.7500 0001463 258.5742 101.4950 15.40682050 28797
STARLINK-31448          
1 59611U 24080L   24297.94377876 -.00010761  00000+0 -25098-3 0  9994
2 59611  43.0032  14.3156 0000461  45.6047 314.4847 15.40669838 28756
STARLINK-31748          
1 59612U 24080M   24298.19185373  .00006543  00000+0  16376-3 0  9992
2 59612  43.0031  12.7402 0000946 281.5492  78.5258 15.40701638 28743
STARLINK-31746          
1 59613U 24080N   24297.65514028  .00004240  00000+0  10867-3 0  9997
2 59613  43.0067  14.6884 0002118 272.3697  87.6917 15.40709701 27501
STARLINK-31762          
1 59614U 24080P   24297.92580635  .00000629  00000+0  22322-4 0  9992
2 59614  43.0003  14.1765 0000987 248.5175 111.5576 15.40702105 28750
STARLINK-31761          
1 59615U 24080Q   24297.51118426 -.00005907  00000+0 -13431-3 0  9999
2 59615  43.0023  11.8335 0005132 306.9042  53.1344 15.40660268 28699
STARLINK-31768          
1 59616U 24080R   24297.92806788 -.00002123  00000+0 -43599-4 0  9996
2 59616  43.0043  14.1908 0001421 223.4311 136.6434 15.40681674 28751
STARLINK-31769          
1 59617U 24080S   24297.71564260 -.00000618  00000+0 -75448-5 0  9996
2 59617  43.0016  15.1712 0000689 251.2096 108.8685 15.40712104 28729
STARLINK-31784          
1 59618U 24080T   24297.50547394  .00000268  00000+0  13689-4 0  9990
2 59618  43.0025  16.1748 0002423 285.0332  75.0256 15.40716806 28649
STARLINK-31777          
1 59619U 24080U   24298.21636248 -.00005295  00000+0 -11958-3 0  9990
2 59619  43.0040  12.0455 0001743 231.7992 128.2708 15.40699509 28802
STARLINK-31771          
1 59620U 24080V   24298.18668432  .00000961  00000+0  26995-4 0  9999
2 59620  43.0059  10.0765 0002347 276.0164  84.0427 15.44429488 28774
STARLINK-31758          
1 59621U 24080W   24297.94151816 -.00002517  00000+0 -53077-4 0  9998
2 59621  43.0027  14.2973 0000323 241.9548 118.1276 15.40678257 28706
STARLINK-31774          
1 59622U 24080X   24297.93701540 -.00001058  00000+0 -18046-4 0  9999
2 59622  43.0035  14.2597 0002071 265.7715  94.2905 15.40700136 27535
STARLINK-31763          
1 59623U 24080Y   24297.64410898 -.00000741  00000+0 -10486-4 0  9999
2 59623  42.9969  15.4948 0001157 165.2350 194.8541 15.40699257 28700
STARLINK-31749          
1 59631U 24082A   24298.19019076  .00001418  00000+0  41196-4 0  9996
2 59631  43.0031 105.9080 0001523 279.1075  80.9609 15.40715543 27671
STARLINK-31781          
1 59632U 24082B   24297.91672947  .00004048  00000+0  10408-3 0  9991
2 59632  43.0000  93.1313 0001303 277.2804  82.7904 15.40708844 28057
STARLINK-31541          
1 59633U 24082C   24297.76987460 -.00002601  00000+0 -55018-4 0  9996
2 59633  43.0048 107.9033 0001861 272.7879  87.2764 15.40697083 28083
STARLINK-31797          
1 59634U 24082D   24298.17228587 -.00000603  00000+0 -71684-5 0  9999
2 59634  43.0019 105.7688 0001994 264.5972  95.4657 15.40699978 27945
STARLINK-31798          
1 59635U 24082E   24297.94867107  .00025820  00000+0  62257-3 0  9991
2 59635  43.0009 106.6630 0002256 259.4704 100.5898 15.40733048 27908
STARLINK-31802          
1 59636U 24082F   24297.95765200 -.00002835  00000+0 -60675-4 0  9990
2 59636  43.0052 106.7295 0002190 252.4339 107.6278 15.40671285 27925
STARLINK-31791          
1 59637U 24082G   24297.92193101 -.00001473  00000+0 -28002-4 0  9998
2 59637  43.0053 107.3296 0002806 266.5860  93.4676 15.40687268 27915
STARLINK-31727          
1 59638U 24082H   24298.19902964 -.00002002  00000+0 -40694-4 0  9994
2 59638  43.0012 105.0982 0001710 263.1463  96.9199 15.40685514 28015
STARLINK-31807          
1 59639U 24082J   24297.95316095 -.00003259  00000+0 -70848-4 0  9991
2 59639  43.0014 106.6942 0001301 258.5985 101.4725 15.40675828 27916
STARLINK-31806          
1 59640U 24082K   24298.16555597 -.00000384  00000+0 -19191-5 0  9990
2 59640  43.0036 105.7167 0001858 278.4357  81.6289 15.40712552 27956
STARLINK-31804          
1 59641U 24082L   24297.86158321 -.00002488  00000+0 -52329-4 0  9997
2 59641  43.0046 107.7364 0002204 256.8630 103.1980 15.40685298 27908
STARLINK-31660          
1 59642U 24082M   24298.12943917  .00000086  00000+0  93221-5 0  9998
2 59642  43.0038  93.9473 0001859 267.1199  92.9444 15.40693817 28274
STARLINK-31800          
1 59643U 24082N   24297.94630782 -.00006422  00000+0 -14663-3 0  9994
2 59643  43.0046 105.7616 0001719 261.2618  98.8044 15.40694122 28025
STARLINK-31789          
1 59644U 24082P   24298.17678607  .00015499  00000+0  37742-3 0  9994
2 59644  43.0020 105.7979 0001752 283.3923  76.6738 15.40710205 28150
STARLINK-31795          
1 59645U 24082Q   24297.85603330  .00029579  00000+0  59998-3 0  9991
2 59645  43.0027  96.2076 0006281 327.7812  32.2662 15.45793692 28062
STARLINK-31796          
1 59646U 24082R   24298.17005232  .00000352  00000+0  15705-4 0  9992
2 59646  43.0026 105.7485 0001606 269.2231  90.8442 15.40679092 28117
STARLINK-31801          
1 59647U 24082S   24297.94195072  .00001754  00000+0  49274-4 0  9994
2 59647  43.0050 106.6060 0002552 283.4428  76.6144 15.40690012 27970
STARLINK-31790          
1 59648U 24082T   24298.20951727 -.00180168  00000+0 -44723-2 0  9993
2 59648  43.0059  62.3025 0000558 289.1219  70.9577 15.40268238 28434
STARLINK-31803          
1 59649U 24082U   24298.25001157  .00499475  00000+0  93303-2 0  9992
2 59649  43.0004 104.7370 0005658 313.6280 357.5855 15.46123602 28014
STARLINK-31787          
1 59650U 24082V   24297.90850419 -.00002525  00000+0 -53197-4 0  9995
2 59650  43.0012 107.2242 0001830 296.9895  63.0774 15.40695958 28116
STARLINK-31277          
1 59651U 24082W   24298.16332017  .00001653  00000+0  46833-4 0  9992
2 59651  43.0031 105.6969 0001505 275.3652  84.7033 15.40698933 28155
STARLINK-31799          
1 59652U 24082X   24297.95092324 -.00004574  00000+0 -10231-3 0  9992
2 59652  43.0015 106.6746 0001503 277.8548  82.2137 15.40695242 27978
STARLINK-31764          
1 59653U 24082Y   24298.17899628 -.00002530  00000+0 -53296-4 0  9999
2 59653  43.0032 105.8146 0001294 288.5223  71.5493 15.40710099 28143
STARLINK-31589          
1 59654U 24084A   24298.21064871 -.00002301  00000+0 -47858-4 0  9994
2 59654  43.0033   6.4296 0001240 267.0052  93.0662 15.40691466 27568
STARLINK-31665          
1 59655U 24084B   24297.64288402 -.00008672  00000+0 -20053-3 0  9993
2 59655  42.9994   9.9098 0000749  68.2152 291.8784 15.40707776 27415
STARLINK-31912          
1 59656U 24084C   24297.48408531 -.00000620  00000+0 -75791-5 0  9999
2 59656  43.0034  10.4313 0002288 268.5719  91.4876 15.40690173 27423
STARLINK-31904          
1 59657U 24084D   24298.18826090 -.00002099  00000+0 -43041-4 0  9996
2 59657  43.0024   6.2525 0001666 253.3196 106.7478 15.40672435 27464
STARLINK-31858          
1 59658U 24084E   24297.63163314  .00005722  00000+0  14402-3 0  9991
2 59658  43.0032   9.8212 0001623 226.2551 133.8171 15.40723285 27419
STARLINK-31881          
1 59659U 24084F   24298.17269103  .00002161  00000+0  59017-4 0  9991
2 59659  43.0049   7.0064 0002155 268.4048  91.6561 15.40689433 27491
STARLINK-31885          
1 59660U 24084G   24297.70100202 -.00004037  00000+0 -89523-4 0  9996
2 59660  43.0054   9.4882 0003004 281.5680  78.4840 15.40660372 27422
STARLINK-31880          
1 59661U 24084H   24298.10115788 -.00001998  00000+0 -40623-4 0  9998
2 59661  42.9985   7.3271 0001120 317.9027  42.1744 15.40663827 27484
STARLINK-31886          
1 59662U 24084J   24297.68752416  .00002835  00000+0  75094-4 0  9995
2 59662  43.0023   9.3768 0000598 191.3512 168.7331 15.40701971 27428
STARLINK-31909          
1 59663U 24084K   24297.53325208 -.00002423  00000+0 -50755-4 0  9997
2 59663  43.0066   9.9850 0003293 289.4003  70.6498 15.40682635 27401
STARLINK-31910          
1 59664U 24084L   24297.26048839 -.00002109  00000+0 -43223-4 0  9993
2 59664  43.0047  11.3295 0001833 298.4572  61.6100 15.40698045 27390
STARLINK-31902          
1 59666U 24084N   24297.48856450  .00000599  00000+0  21600-4 0  9999
2 59666  43.0031  10.4607 0001110 260.6922  99.3809 15.40707682 27426
STARLINK-31913          
1 59667U 24084P   24297.26281411  .00009570  00000+0  23565-3 0  9994
2 59667  43.0011  12.2130 0000644 218.3685 141.7126 15.40753174 27389
STARLINK-31866          
1 59668U 24084Q   24298.17705219 -.00004396  00000+0 -98031-4 0  9997
2 59668  43.0028   6.1654 0000579 300.4767  59.6032 15.40700860 27570
STARLINK-31917          
1 59669U 24084R   24297.92669569 -.00002050  00000+0 -41876-4 0  9997
2 59669  43.0024   7.7249 0000879 240.1797 119.8972 15.40673693 27463
STARLINK-31860          
1 59670U 24084S   24297.50872761 -.00002125  00000+0 -43638-4 0  9994
2 59670  43.0000  10.6107 0001398 216.9446 143.1315 15.40692009 27401
STARLINK-31854          
1 59671U 24084T   24297.62479943  .00002226  00000+0  60505-4 0  9995
2 59671  43.0036   8.9168 0002009 253.3927 106.6709 15.40714131 27421
STARLINK-31842          
1 59672U 24084U   24297.50422163  .00007752  00000+0  19243-3 0  9996
2 59672  43.0013  10.5782 0001199 136.9507 223.1443 15.40735736 27421
STARLINK-31871          
1 59673U 24084V   24298.17479427  .00003464  00000+0  90214-4 0  9990
2 59673  42.9985   6.1407 0001134 270.8998  89.1728 15.40679154 27588
STARLINK-31875          
1 59674U 24084W   24297.64509759 -.00000958  00000+0 -15677-4 0  9991
2 59674  43.0029   9.9143 0000805 225.8186 134.2604 15.40696472 27487
